{
  "links" : {
    "next" : "https://api.nasa.gov/neo/rest/v1/feed?start_date=2000-08-16&end_date=2000-08-16&detailed=true&api_key=t0TVs3DtDT2H8Oy2Zy8m2eVrNsAVKAexjcZXUckd",
    "prev" : "https://api.nasa.gov/neo/rest/v1/feed?start_date=2000-08-14&end_date=2000-08-14&detailed=true&api_key=t0TVs3DtDT2H8Oy2Zy8m2eVrNsAVKAexjcZXUckd",
    "self" : "https://api.nasa.gov/neo/rest/v1/feed?start_date=2000-08-15&end_date=2000-08-15&detailed=true&api_key=t0TVs3DtDT2H8Oy2Zy8m2eVrNsAVKAexjcZXUckd"
  },
  "element_count" : 9,
  "near_earth_objects" : {
    "2000-08-15" : [ {
      "links" : {
        "self" : "https://api.nasa.gov/neo/rest/v1/neo/3249183?api_key=t0TVs3DtDT2H8Oy2Zy8m2eVrNsAVKAexjcZXUckd"
      },
      "neo_reference_id" : "3249183",
      "name" : "(2004 PF20)",
      "nasa_jpl_url" : "http://ssd.jpl.nasa.gov/sbdb.cgi?sstr=3249183",
      "absolute_magnitude_h" : 22.5,
      "estimated_diameter" : {
        "kilometers" : {
          "estimated_diameter_min" : 0.0840533402,
          "estimated_diameter_max" : 0.1879489824
        },
        "meters" : {
          "estimated_diameter_min" : 84.0533402073,
          "estimated_diameter_max" : 187.9489824394
        },
        "miles" : {
          "estimated_diameter_min" : 0.0522283081,
          "estimated_diameter_max" : 0.1167860472
        },
        "feet" : {
          "estimated_diameter_min" : 275.7655606856,
          "estimated_diameter_max" : 616.6305395464
        }
      },
      "is_potentially_hazardous_asteroid" : false,
      "close_approach_data" : [ {
        "close_approach_date" : "2000-08-15",
        "epoch_date_close_approach" : 966322800000,
        "relative_velocity" : {
          "kilometers_per_second" : "15.4910143881",
          "kilometers_per_hour" : "55767.6517970369",
          "miles_per_hour" : "34651.8500846644"
        },
        "miss_distance" : {
          "astronomical" : "0.3787936081",
          "lunar" : "147.3507080078",
          "kilometers" : "56666716",
          "miles" : "35211064"
        },
        "orbiting_body" : "Earth"
      } ],
      "orbital_data" : {
        "orbit_id" : "14",
        "orbit_determination_date" : "2017-04-06 09:12:31",
        "orbit_uncertainty" : "7",
        "minimum_orbit_intersection" : ".110573",
        "jupiter_tisserand_invariant" : "4.318",
        "epoch_osculation" : "2458000.5",
        "eccentricity" : ".2949061818491701",
        "semi_major_axis" : "1.568614114199958",
        "inclination" : "17.40594751089217",
        "ascending_node_longitude" : "318.0365622362368",
        "orbital_period" : "717.5837651078681",
        "perihelion_distance" : "1.10602011498653",
        "perihelion_argument" : "335.0211674986815",
        "aphelion_distance" : "2.031208113413385",
        "perihelion_time" : "2458221.738414924668",
        "mean_anomaly" : "249.0083175712485",
        "mean_motion" : ".5016835908291269",
        "equinox" : "J2000"
      }
    }, {
      "links" : {
        "self" : "https://api.nasa.gov/neo/rest/v1/neo/2004769?api_key=t0TVs3DtDT2H8Oy2Zy8m2eVrNsAVKAexjcZXUckd"
      },
      "neo_reference_id" : "2004769",
      "name" : "4769 Castalia (1989 PB)",
      "nasa_jpl_url" : "http://ssd.jpl.nasa.gov/sbdb.cgi?sstr=2004769",
      "absolute_magnitude_h" : 16.9,
      "estimated_diameter" : {
        "kilometers" : {
          "estimated_diameter_min" : 1.1080388213,
          "estimated_diameter_max" : 2.4776501261
        },
        "meters" : {
          "estimated_diameter_min" : 1108.0388212642,
          "estimated_diameter_max" : 2477.6501260554
        },
        "miles" : {
          "estimated_diameter_min" : 0.6885031904,
          "estimated_diameter_max" : 1.5395399365
        },
        "feet" : {
          "estimated_diameter_min" : 3635.2980863563,
          "estimated_diameter_max" : 8128.7736395675
        }
      },
      "is_potentially_hazardous_asteroid" : true,
      "close_approach_data" : [ {
        "close_approach_date" : "2000-08-15",
        "epoch_date_close_approach" : 966322800000,
        "relative_velocity" : {
          "kilometers_per_second" : "22.2507248412",
          "kilometers_per_hour" : "80102.6094281958",
          "miles_per_hour" : "49772.6463972031"
        },
        "miss_distance" : {
          "astronomical" : "0.245860076",
          "lunar" : "95.6395645142",
          "kilometers" : "36780144",
          "miles" : "22854122"
        },
        "orbiting_body" : "Earth"
      } ],
      "orbital_data" : {
        "orbit_id" : "89",
        "orbit_determination_date" : "2017-04-06 09:46:21",
        "orbit_uncertainty" : "0",
        "minimum_orbit_intersection" : ".0203525",
        "jupiter_tisserand_invariant" : "5.676",
        "epoch_osculation" : "2458000.5",
        "eccentricity" : ".4831693230163794",
        "semi_major_axis" : "1.063298253689737",
        "inclination" : "8.88515554138232",
        "ascending_node_longitude" : "325.5773202860467",
        "orbital_period" : "400.4802264087043",
        "perihelion_distance" : ".5495451562899683",
        "perihelion_argument" : "121.3674690848725",
        "aphelion_distance" : "1.577051351089505",
        "perihelion_time" : "2457837.453987110941",
        "mean_anomaly" : "146.5654501007978",
        "mean_motion" : ".8989207862477765",
        "equinox" : "J2000"
      }
    }, {
      "links" : {
        "self" : "https://api.nasa.gov/neo/rest/v1/neo/2017274?api_key=t0TVs3DtDT2H8Oy2Zy8m2eVrNsAVKAexjcZXUckd"
      },
      "neo_reference_id" : "2017274",
      "name" : "17274 (2000 LC16)",
      "nasa_jpl_url" : "http://ssd.jpl.nasa.gov/sbdb.cgi?sstr=2017274",
      "absolute_magnitude_h" : 16.6,
      "estimated_diameter" : {
        "kilometers" : {
          "estimated_diameter_min" : 1.2721987854,
          "estimated_diameter_max" : 2.844722965
        },
        "meters" : {
          "estimated_diameter_min" : 1272.1987853936,
          "estimated_diameter_max" : 2844.7229650327
        },
        "miles" : {
          "estimated_diameter_min" : 0.7905074315,
          "estimated_diameter_max" : 1.7676283535
        },
        "feet" : {
          "estimated_diameter_min" : 4173.8806630706,
          "estimated_diameter_max" : 9333.0808925979
        }
      },
      "is_potentially_hazardous_asteroid" : false,
      "close_approach_data" : [ {
        "close_approach_date" : "2000-08-15",
        "epoch_date_close_approach" : 966322800000,
        "relative_velocity" : {
          "kilometers_per_second" : "5.2872055012",
          "kilometers_per_hour" : "19033.9398044555",
          "miles_per_hour" : "11826.9499857185"
        },
        "miss_distance" : {
          "astronomical" : "0.2341868129",
          "lunar" : "91.0986709595",
          "kilometers" : "35033848",
          "miles" : "21769024"
        },
        "orbiting_body" : "Earth"
      } ],
      "orbital_data" : {
        "orbit_id" : "111",
        "orbit_determination_date" : "2017-04-06 09:29:43",
        "orbit_uncertainty" : "0",
        "minimum_orbit_intersection" : ".211813",
        "jupiter_tisserand_invariant" : "3.104",
        "epoch_osculation" : "2458000.5",
        "eccentricity" : ".5535448748501798",
        "semi_major_axis" : "2.734874746458827",
        "inclination" : "5.569994979205657",
        "ascending_node_longitude" : "305.8548842522667",
        "orbital_period" : "1651.979251646706",
        "perihelion_distance" : "1.220998847199358",
        "perihelion_argument" : "21.20307489295881",
        "aphelion_distance" : "4.248750645718296",
        "perihelion_time" : "2458355.479535031290",
        "mean_anomaly" : "282.6427132883904",
        "mean_motion" : ".2179204125240369",
        "equinox" : "J2000"
      }
    } ]
  }
}